ORBCOMM FM37            
1 33064U 08031E   25036.64005182  .00003345  00000+0  47723-3 0  9990
2 33064  48.4382 248.6609 0006155 172.1787 228.6739 14.78882862894576
ORBCOMM FM40            
1 33065U 08031F   25036.80544693  .00004475  00000+0  59997-3 0  9995
2 33065  48.4401 234.0017 0007673 183.7870 190.0042 14.80881230895119
VESSELSAT 1             
1 37840U 11058C   25036.59390049  .00000524  00000+0  14111-3 0  9993
2 37840  19.9607 170.1332 0013594 178.7015 181.3425 14.11304754687694
ORBCOMM FM109           
1 40086U 14040A   25036.81945746  .00001618  00000+0  38713-3 0  9997
2 40086  47.0032 276.5621 0001385  96.6427 263.4616 14.57772390562013
ORBCOMM FM107           
1 40087U 14040B   25036.85376786  .00001563  00000+0  37476-3 0  9998
2 40087  47.0050 277.4082 0001044  30.2675 329.8271 14.57834259562013
ORBCOMM FM106           
1 40088U 14040C   25036.57520283  .00002715  00000+0  49082-3 0  9997
2 40088  47.0594 111.2854 0017054 180.1014 179.9876 14.68841535564125
ORBCOMM FM111           
1 40089U 14040D   25036.55403480  .00006265  00000+0  74341-3 0  9995
2 40089  47.0032 339.0363 0030920 283.3015  76.4434 14.85048903570655
ORBCOMM FM104           
1 40090U 14040E   25036.49401440  .00001643  00000+0  40485-3 0  9991
2 40090  47.0064 311.1512 0016943 322.7550  37.2159 14.56285379561422
